APRIZESAT 2             
1 28366U 04025A   22260.55516425  .00000095  00000+0  43387-4 0  9993
2 28366  98.1516 124.9325 0108637  58.4839 302.6907 14.36842431955041
SAUDICOMSAT 1           
1 28369U 04025D   22260.44708280  .00000300  00000+0  84068-4 0  9996
2 28369  98.4503 222.7032 0032185 252.7637 107.0035 14.52849457965205
SAUDICOMSAT 2           
1 28370U 04025E   22260.46295220  .00000301  00000+0  92343-4 0  9991
2 28370  98.5420 221.9594 0058898  83.1060 277.6828 14.47739914961946
APRIZESAT 1             
1 28372U 04025G   22260.46022860  .00000274  00000+0  82303-4 0  9995
2 28372  98.5031 222.0990 0046163 357.2973   2.7964 14.49840645963438
NANOSAT-1               
1 28493U 04049B   22260.28427886  .00000681  00000+0  11120-3 0  9992
2 28493  98.1157   1.1545 0004613  16.4521 343.6836 14.74097741953394
SAUDICOMSAT 7           
1 31119U 07012C   22260.39752493  .00000379  00000+0  83087-4 0  9997
2 31119  98.1905 205.4219 0060033 161.9579 198.3772 14.62158384822148
SAUDICOMSAT 6           
1 31121U 07012E   22260.41155970  .00000396  00000+0  91677-4 0  9993
2 31121  98.2306 200.7153 0074790 266.6766  92.5875 14.58943905820354
SAUDICOMSAT 5           
1 31124U 07012H   22260.28773713  .00000490  00000+0  10122-3 0  9992
2 31124  98.1597 206.8189 0052590 108.5737 252.1188 14.63886861823021
SAUDICOMSAT 3           
1 31125U 07012J   22260.30042348  .00000681  00000+0  13233-3 0  9997
2 31125  98.1256 208.2223 0044155  55.6205 304.9162 14.65720835823960
SAUDICOMSAT 4           
1 31127U 07012L   22260.42696954  .00000357  00000+0  81160-4 0  9995
2 31127  98.2130 203.8488 0066850 211.1956 148.5269 14.60671302821301
APRIZESAT 4             
1 35684U 09041D   22260.53963965  .00000571  00000+0  82296-4 0  9991
2 35684  98.3104 277.3392 0047854  57.3140 303.2672 14.79729725708689
APRIZESAT 3             
1 35686U 09041F   22260.49199829  .00000884  00000+0  98579-4 0  9996
2 35686  98.1047 349.2093 0070751 245.1094 114.2756 14.88049685712294
AISSAT 1                
1 36797U 10035C   22260.49425322  .00001337  00000+0  15483-3 0  9991
2 36797  98.2402  87.8490 0009922 227.0243 133.0141 14.87278930660124
S-NET D                 
1 43186U 18014G   22260.27220767  .00002072  00000+0  17942-3 0  9997
2 43186  97.6469 164.2291 0010225 358.1256   1.9927 14.98176001252666
S-NET B                 
1 43187U 18014H   22260.47283218  .00002104  00000+0  18215-3 0  9990
2 43187  97.6465 164.3727 0010184 357.7390   2.3784 14.98174733252695
S-NET A                 
1 43188U 18014J   22260.47314052  .00002136  00000+0  18485-3 0  9996
2 43188  97.6471 164.4418 0010204 357.7419   2.3756 14.98174555252697
S-NET C                 
1 43189U 18014K   22260.27364315  .00002109  00000+0  18261-3 0  9994
2 43189  97.6465 164.1650 0010194 358.6182   1.5010 14.98170605251214
SALSAT                  
1 46495U 20068K   22260.40046566  .00002886  00000+0  20818-3 0  9992
2 46495  97.7333 201.7701 0015717 330.7367  29.2977 15.04846467108011
